ELECTRON R/B            
1 67558U 26015C   26042.22476545  .02373422 -10034-5  16042-2 0  9996
2 67558  88.9933 280.7780 0447533 197.2955 161.2632 15.31025256  2978
ELECTRON KICK STAGE R/B 
1 67559U 26015D   26042.06703705  .00063274  19111-6  10710-2 0  9990
2 67559  89.0512 281.0500 0530213 266.7183  87.3273 14.67753857  2883
STARLINK-36426          
1 67560U 26014AA  26042.25474529  .00291294  00000+0  14643-2 0  9995
2 67560  97.2846 285.9035 0002188  52.3526 307.7940 15.80920022  4403
STARLINK-36621          
1 67561U 26016A   26042.25001157 -.00007117  00000+0 -46910-4 0  9996
2 67561  97.2835 101.3518 0001206  64.3720  17.0060 15.75176879  3790
STARLINK-36398          
1 67562U 26016B   26042.25001157 -.00077799  00000+0 -52469-3 0  9995
2 67562  97.2835 101.3322 0001319  69.8842 329.4803 15.75225101  3781
STARLINK-36403          
1 67563U 26016C   26042.23097258  .00261094  00000+0  13169-2 0  9995
2 67563  97.2834 101.3432 0001081  65.6184 294.5197 15.80924221  2638
STARLINK-36593          
1 67564U 26016D   26042.16644926  .00260564  00000+0  13144-2 0  9992
2 67564  97.2837 101.2777 0001242  44.0074 316.1293 15.80922857  2621
STARLINK-35725          
1 67565U 26016E   26042.22883175  .00300188  00000+0  15057-2 0  9993
2 67565  97.2838 101.3454 0001161  81.3811 278.7588 15.80945217  2635
STARLINK-36394          
1 67566U 26016F   26042.25001157 -.01971877  00000+0 -13640-1 0  9996
2 67566  97.2806 101.3722 0001858  78.8381  59.8768 15.77716699  3898
STARLINK-36352          
1 67567U 26016G   26042.22608257  .00016771  00000+0  88208-4 0  9993
2 67567  97.2795 101.3441 0001588  66.0523 294.0911 15.80794955  2630
STARLINK-36435          
1 67568U 26016H   26042.22382816  .00258223  00000+0  13058-2 0  9993
2 67568  97.2788 101.3483 0001665  54.9926 305.1498 15.80875458  2630
STARLINK-36575          
1 67569U 26016J   26042.22262509  .00270210  00000+0  13608-2 0  9991
2 67569  97.2846 101.3536 0001127  88.9685 271.1713 15.80933702  2636
