CCSDS_OMM_VERS = 2.0
CREATION_DATE  = 
ORIGINATOR     = 

OBJECT_NAME    = ELECTRON R/B
OBJECT_ID      = 2026-015C
CENTER_NAME    = EARTH
REF_FRAME      = TEME
TIME_SYSTEM    = UTC
MEAN_ELEMENT_THEORY = SGP/SGP4

EPOCH          = 2026-02-11T05:23:39.734880
MEAN_MOTION    = 15.31025256
ECCENTRICITY   = .04475332
INCLINATION    = 88.9933
RA_OF_ASC_NODE = 280.7780
ARG_OF_PERICENTER = 197.2955
MEAN_ANOMALY   = 161.2632

EPHEMERIS_TYPE = 0
CLASSIFICATION_TYPE = U
NORAD_CAT_ID   = 67558
ELEMENT_SET_NO = 999
REV_AT_EPOCH   = 297
BSTAR          = .16042261E-2
MEAN_MOTION_DOT = .2373422E-1
MEAN_MOTION_DDOT = -.1003356E-5

CCSDS_OMM_VERS = 2.0
CREATION_DATE  = 
ORIGINATOR     = 

OBJECT_NAME    = ELECTRON KICK STAGE R/B
OBJECT_ID      = 2026-015D
CENTER_NAME    = EARTH
REF_FRAME      = TEME
TIME_SYSTEM    = UTC
MEAN_ELEMENT_THEORY = SGP/SGP4

EPOCH          = 2026-02-11T01:36:32.001120
MEAN_MOTION    = 14.67753857
ECCENTRICITY   = .05302138
INCLINATION    = 89.0512
RA_OF_ASC_NODE = 281.0500
ARG_OF_PERICENTER = 266.7183
MEAN_ANOMALY   = 87.3273

EPHEMERIS_TYPE = 0
CLASSIFICATION_TYPE = U
NORAD_CAT_ID   = 67559
ELEMENT_SET_NO = 999
REV_AT_EPOCH   = 288
BSTAR          = .10710396E-2
MEAN_MOTION_DOT = .63274E-3
MEAN_MOTION_DDOT = .191114E-6

CCSDS_OMM_VERS = 2.0
CREATION_DATE  = 
ORIGINATOR     = 

OBJECT_NAME    = STARLINK-36426
OBJECT_ID      = 2026-014AA
CENTER_NAME    = EARTH
REF_FRAME      = TEME
TIME_SYSTEM    = UTC
MEAN_ELEMENT_THEORY = SGP/SGP4

EPOCH          = 2026-02-11T06:06:49.993056
MEAN_MOTION    = 15.80920022
ECCENTRICITY   = .00021881
INCLINATION    = 97.2846
RA_OF_ASC_NODE = 285.9035
ARG_OF_PERICENTER = 52.3526
MEAN_ANOMALY   = 307.7940

EPHEMERIS_TYPE = 0
CLASSIFICATION_TYPE = U
NORAD_CAT_ID   = 67560
ELEMENT_SET_NO = 999
REV_AT_EPOCH   = 440
BSTAR          = .1464291E-2
MEAN_MOTION_DOT = .291294E-2
MEAN_MOTION_DDOT = 0

CCSDS_OMM_VERS = 2.0
CREATION_DATE  = 
ORIGINATOR     = 

OBJECT_NAME    = STARLINK-36621
OBJECT_ID      = 2026-016A
CENTER_NAME    = EARTH
REF_FRAME      = TEME
TIME_SYSTEM    = UTC
MEAN_ELEMENT_THEORY = SGP/SGP4

EPOCH          = 2026-02-11T06:00:00.999648
MEAN_MOTION    = 15.75176879
ECCENTRICITY   = .00012069
INCLINATION    = 97.2835
RA_OF_ASC_NODE = 101.3518
ARG_OF_PERICENTER = 64.3720
MEAN_ANOMALY   = 17.0060

EPHEMERIS_TYPE = 0
CLASSIFICATION_TYPE = U
NORAD_CAT_ID   = 67561
ELEMENT_SET_NO = 999
REV_AT_EPOCH   = 379
BSTAR          = -.46909809E-4
MEAN_MOTION_DOT = -.7117E-4
MEAN_MOTION_DDOT = 0

CCSDS_OMM_VERS = 2.0
CREATION_DATE  = 
ORIGINATOR     = 

OBJECT_NAME    = STARLINK-36398
OBJECT_ID      = 2026-016B
CENTER_NAME    = EARTH
REF_FRAME      = TEME
TIME_SYSTEM    = UTC
MEAN_ELEMENT_THEORY = SGP/SGP4

EPOCH          = 2026-02-11T06:00:00.999648
MEAN_MOTION    = 15.75225101
ECCENTRICITY   = .00013199
INCLINATION    = 97.2835
RA_OF_ASC_NODE = 101.3322
ARG_OF_PERICENTER = 69.8842
MEAN_ANOMALY   = 329.4803

EPHEMERIS_TYPE = 0
CLASSIFICATION_TYPE = U
NORAD_CAT_ID   = 67562
ELEMENT_SET_NO = 999
REV_AT_EPOCH   = 378
BSTAR          = -.52468623E-3
MEAN_MOTION_DOT = -.77799E-3
MEAN_MOTION_DDOT = 0

CCSDS_OMM_VERS = 2.0
CREATION_DATE  = 
ORIGINATOR     = 

OBJECT_NAME    = STARLINK-36403
OBJECT_ID      = 2026-016C
CENTER_NAME    = EARTH
REF_FRAME      = TEME
TIME_SYSTEM    = UTC
MEAN_ELEMENT_THEORY = SGP/SGP4

EPOCH          = 2026-02-11T05:32:36.030912
MEAN_MOTION    = 15.80924221
ECCENTRICITY   = .00010812
INCLINATION    = 97.2834
RA_OF_ASC_NODE = 101.3432
ARG_OF_PERICENTER = 65.6184
MEAN_ANOMALY   = 294.5197

EPHEMERIS_TYPE = 0
CLASSIFICATION_TYPE = U
NORAD_CAT_ID   = 67563
ELEMENT_SET_NO = 999
REV_AT_EPOCH   = 263
BSTAR          = .1316917E-2
MEAN_MOTION_DOT = .261094E-2
MEAN_MOTION_DDOT = 0

CCSDS_OMM_VERS = 2.0
CREATION_DATE  = 
ORIGINATOR     = 

OBJECT_NAME    = STARLINK-36593
OBJECT_ID      = 2026-016D
CENTER_NAME    = EARTH
REF_FRAME      = TEME
TIME_SYSTEM    = UTC
MEAN_ELEMENT_THEORY = SGP/SGP4

EPOCH          = 2026-02-11T03:59:41.216064
MEAN_MOTION    = 15.80922857
ECCENTRICITY   = .00012425
INCLINATION    = 97.2837
RA_OF_ASC_NODE = 101.2777
ARG_OF_PERICENTER = 44.0074
MEAN_ANOMALY   = 316.1293

EPHEMERIS_TYPE = 0
CLASSIFICATION_TYPE = U
NORAD_CAT_ID   = 67564
ELEMENT_SET_NO = 999
REV_AT_EPOCH   = 262
BSTAR          = .13144137E-2
MEAN_MOTION_DOT = .260564E-2
MEAN_MOTION_DDOT = 0

CCSDS_OMM_VERS = 2.0
CREATION_DATE  = 
ORIGINATOR     = 

OBJECT_NAME    = STARLINK-35725
OBJECT_ID      = 2026-016E
CENTER_NAME    = EARTH
REF_FRAME      = TEME
TIME_SYSTEM    = UTC
MEAN_ELEMENT_THEORY = SGP/SGP4

EPOCH          = 2026-02-11T05:29:31.063200
MEAN_MOTION    = 15.80945217
ECCENTRICITY   = .00011611
INCLINATION    = 97.2838
RA_OF_ASC_NODE = 101.3454
ARG_OF_PERICENTER = 81.3811
MEAN_ANOMALY   = 278.7588

EPHEMERIS_TYPE = 0
CLASSIFICATION_TYPE = U
NORAD_CAT_ID   = 67565
ELEMENT_SET_NO = 999
REV_AT_EPOCH   = 263
BSTAR          = .15057077E-2
MEAN_MOTION_DOT = .300188E-2
MEAN_MOTION_DDOT = 0

CCSDS_OMM_VERS = 2.0
CREATION_DATE  = 
ORIGINATOR     = 

OBJECT_NAME    = STARLINK-36394
OBJECT_ID      = 2026-016F
CENTER_NAME    = EARTH
REF_FRAME      = TEME
TIME_SYSTEM    = UTC
MEAN_ELEMENT_THEORY = SGP/SGP4

EPOCH          = 2026-02-11T06:00:00.999648
MEAN_MOTION    = 15.77716699
ECCENTRICITY   = .00018587
INCLINATION    = 97.2806
RA_OF_ASC_NODE = 101.3722
ARG_OF_PERICENTER = 78.8381
MEAN_ANOMALY   = 59.8768

EPHEMERIS_TYPE = 0
CLASSIFICATION_TYPE = U
NORAD_CAT_ID   = 67566
ELEMENT_SET_NO = 999
REV_AT_EPOCH   = 389
BSTAR          = -.13639618E-1
MEAN_MOTION_DOT = -.1971877E-1
MEAN_MOTION_DDOT = 0

CCSDS_OMM_VERS = 2.0
CREATION_DATE  = 
ORIGINATOR     = 

OBJECT_NAME    = STARLINK-36352
OBJECT_ID      = 2026-016G
CENTER_NAME    = EARTH
REF_FRAME      = TEME
TIME_SYSTEM    = UTC
MEAN_ELEMENT_THEORY = SGP/SGP4

EPOCH          = 2026-02-11T05:25:33.534048
MEAN_MOTION    = 15.80794955
ECCENTRICITY   = .00015884
INCLINATION    = 97.2795
RA_OF_ASC_NODE = 101.3441
ARG_OF_PERICENTER = 66.0523
MEAN_ANOMALY   = 294.0911

EPHEMERIS_TYPE = 0
CLASSIFICATION_TYPE = U
NORAD_CAT_ID   = 67567
ELEMENT_SET_NO = 999
REV_AT_EPOCH   = 263
BSTAR          = .88207579E-4
MEAN_MOTION_DOT = .16771E-3
MEAN_MOTION_DDOT = 0

CCSDS_OMM_VERS = 2.0
CREATION_DATE  = 
ORIGINATOR     = 

OBJECT_NAME    = STARLINK-36435
OBJECT_ID      = 2026-016H
CENTER_NAME    = EARTH
REF_FRAME      = TEME
TIME_SYSTEM    = UTC
MEAN_ELEMENT_THEORY = SGP/SGP4

EPOCH          = 2026-02-11T05:22:18.753024
MEAN_MOTION    = 15.80875458
ECCENTRICITY   = .00016658
INCLINATION    = 97.2788
RA_OF_ASC_NODE = 101.3483
ARG_OF_PERICENTER = 54.9926
MEAN_ANOMALY   = 305.1498

EPHEMERIS_TYPE = 0
CLASSIFICATION_TYPE = U
NORAD_CAT_ID   = 67568
ELEMENT_SET_NO = 999
REV_AT_EPOCH   = 263
BSTAR          = .13057826E-2
MEAN_MOTION_DOT = .258223E-2
MEAN_MOTION_DDOT = 0

CCSDS_OMM_VERS = 2.0
CREATION_DATE  = 
ORIGINATOR     = 

OBJECT_NAME    = STARLINK-36575
OBJECT_ID      = 2026-016J
CENTER_NAME    = EARTH
REF_FRAME      = TEME
TIME_SYSTEM    = UTC
MEAN_ELEMENT_THEORY = SGP/SGP4

EPOCH          = 2026-02-11T05:20:34.807776
MEAN_MOTION    = 15.80933702
ECCENTRICITY   = .00011278
INCLINATION    = 97.2846
RA_OF_ASC_NODE = 101.3536
ARG_OF_PERICENTER = 88.9685
MEAN_ANOMALY   = 271.1713

EPHEMERIS_TYPE = 0
CLASSIFICATION_TYPE = U
NORAD_CAT_ID   = 67569
ELEMENT_SET_NO = 999
REV_AT_EPOCH   = 263
BSTAR          = .13608467E-2
MEAN_MOTION_DOT = .27021E-2
MEAN_MOTION_DDOT = 0

